[{"OBJECT_NAME":"STARLINK-6350","OBJECT_ID":"2023-094J","EPOCH":"2026-03-09T22:00:01.999584","MEAN_MOTION":15.13342785,"ECCENTRICITY":5.601e-5,"INCLINATION":43.0016,"RA_OF_ASC_NODE":28.7492,"ARG_OF_PERICENTER":301.6337,"MEAN_ANOMALY":222.0349,"EPHEMERIS_TYPE":0,"CLASSIFICATION_TYPE":"U","NORAD_CAT_ID":57226,"ELEMENT_SET_NO":999,"REV_AT_EPOCH":577,"BSTAR":0.004124811,"MEAN_MOTION_DOT":0.00075399,"MEAN_MOTION_DDOT":0},{"OBJECT_NAME":"OBJECT A","OBJECT_ID":"2024-110A","EPOCH":"2026-03-09T23:09:02.134656","MEAN_MOTION":15.1192128,"ECCENTRICITY":0.0007919,"INCLINATION":97.5675,"RA_OF_ASC_NODE":161.4531,"ARG_OF_PERICENTER":228.7681,"MEAN_ANOMALY":131.2868,"EPHEMERIS_TYPE":0,"CLASSIFICATION_TYPE":"U","NORAD_CAT_ID":60012,"ELEMENT_SET_NO":999,"REV_AT_EPOCH":9691,"BSTAR":0.00051932581,"MEAN_MOTION_DOT":8.842e-5,"MEAN_MOTION_DDOT":0}]
